[
    [
        [
            2023,
            3,
            13,
            23,
            10
        ],
        [
            "Closed",
            "Closed",
            "Closed",
            "-",
            "-"
        ],
        [
            "KGFK 140353Z 15008KT 10SM CLR M17/M19 A3025 "
        ]
    ],
    [
        [
            2023,
            3,
            13,
            23,
            20
        ],
        [
            "Closed",
            "Closed",
            "Closed",
            "-",
            "-"
        ],
        [
            "KGFK 140353Z 15008KT 10SM CLR M17/M19 A3025 "
        ]
    ],
    [
        [
            2023,
            3,
            13,
            23,
            30
        ],
        [
            "Closed",
            "Closed",
            "Closed",
            "-",
            "-"
        ],
        [
            "KGFK 140353Z 15008KT 10SM CLR M17/M19 A3025 "
        ]
    ],
    [
        [
            2023,
            3,
            13,
            23,
            40
        ],
        [
            "Closed",
            "Closed",
            "Closed",
            "-",
            "-"
        ],
        [
            "KGFK 140353Z 15008KT 10SM CLR M17/M19 A3025 "
        ]
    ],
    [
        [
            2023,
            3,
            13,
            23,
            50
        ],
        [
            "Closed",
            "Closed",
            "Closed",
            "-",
            "-"
        ],
        [
            "KGFK 140353Z 15008KT 10SM CLR M17/M19 A3025 "
        ]
    ],
    [
        [
            2023,
            3,
            14,
            0,
            0
        ],
        [
            "Closed",
            "Closed",
            "Closed",
            "-",
            "-"
        ],
        [
            "KGFK 140453Z AUTO 16007KT 10SM CLR M17/M19 A3024 "
        ]
    ],
    [
        [
            2023,
            3,
            14,
            0,
            10
        ],
        [
            "Closed",
            "Closed",
            "Closed",
            "-",
            "-"
        ],
        [
            "KGFK 140453Z AUTO 16007KT 10SM CLR M17/M19 A3024 "
        ]
    ],
    [
        [
            2023,
            3,
            14,
            0,
            20
        ],
        [
            "Closed",
            "Closed",
            "Closed",
            "-",
            "-"
        ],
        [
            "KGFK 140453Z AUTO 16007KT 10SM CLR M17/M19 A3024 "
        ]
    ],
    [
        [
            2023,
            3,
            14,
            0,
            30
        ],
        [
            "Closed",
            "Closed",
            "Closed",
            "-",
            "-"
        ],
        [
            "KGFK 140453Z AUTO 16007KT 10SM CLR M17/M19 A3024 "
        ]
    ],
    [
        [
            2023,
            3,
            14,
            0,
            40
        ],
        [
            "Closed",
            "Closed",
            "Closed",
            "-",
            "-"
        ],
        [
            "KGFK 140453Z AUTO 16007KT 10SM CLR M17/M19 A3024 "
        ]
    ],
    [
        [
            2023,
            3,
            14,
            0,
            50
        ],
        [
            "Closed",
            "Closed",
            "Closed",
            "-",
            "-"
        ],
        [
            "KGFK 140453Z AUTO 16007KT 10SM CLR M17/M19 A3024 "
        ]
    ],
    [
        [
            2023,
            3,
            14,
            1,
            0
        ],
        [
            "Closed",
            "Closed",
            "Closed",
            "-",
            "-"
        ],
        [
            "KGFK 140553Z AUTO 16004KT 10SM CLR M19/M21 A3024 "
        ]
    ],
    [
        [
            2023,
            3,
            14,
            1,
            10
        ],
        [
            "Closed",
            "Closed",
            "Closed",
            "-",
            "-"
        ],
        [
            "KGFK 140553Z AUTO 16004KT 10SM CLR M19/M21 A3024 "
        ]
    ],
    [
        [
            2023,
            3,
            14,
            1,
            20
        ],
        [
            "Closed",
            "Closed",
            "Closed",
            "-",
            "-"
        ],
        [
            "KGFK 140553Z AUTO 16004KT 10SM CLR M19/M21 A3024 "
        ]
    ],
    [
        [
            2023,
            3,
            14,
            1,
            30
        ],
        [
            "Closed",
            "Closed",
            "Closed",
            "-",
            "-"
        ],
        [
            "KGFK 140553Z AUTO 16004KT 10SM CLR M19/M21 A3024 "
        ]
    ],
    [
        [
            2023,
            3,
            14,
            1,
            40
        ],
        [
            "Closed",
            "Closed",
            "Closed",
            "-",
            "-"
        ],
        [
            "KGFK 140553Z AUTO 16004KT 10SM CLR M19/M21 A3024 "
        ]
    ],
    [
        [
            2023,
            3,
            14,
            1,
            50
        ],
        [
            "Closed",
            "Closed",
            "Closed",
            "-",
            "-"
        ],
        [
            "KGFK 140553Z AUTO 16004KT 10SM CLR M19/M21 A3024 "
        ]
    ],
    [
        [
            2023,
            3,
            14,
            2,
            0
        ],
        [
            "Closed",
            "Closed",
            "Closed",
            "-",
            "-"
        ],
        [
            "KGFK 140553Z AUTO 16004KT 10SM CLR M19/M21 A3024 "
        ]
    ],
    [
        [
            2023,
            3,
            14,
            2,
            10
        ],
        [
            "Closed",
            "Closed",
            "Closed",
            "-",
            "-"
        ],
        [
            "KGFK 140653Z AUTO 16008KT 10SM CLR M18/M19 A3022 "
        ]
    ],
    [
        [
            2023,
            3,
            14,
            2,
            20
        ],
        [
            "Closed",
            "Closed",
            "Closed",
            "-",
            "-"
        ],
        [
            "KGFK 140653Z AUTO 16008KT 10SM CLR M18/M19 A3022 "
        ]
    ],
    [
        [
            2023,
            3,
            14,
            2,
            30
        ],
        [
            "Closed",
            "Closed",
            "Closed",
            "-",
            "-"
        ],
        [
            "KGFK 140653Z AUTO 16008KT 10SM CLR M18/M19 A3022 "
        ]
    ],
    [
        [
            2023,
            3,
            14,
            2,
            40
        ],
        [
            "Closed",
            "Closed",
            "Closed",
            "-",
            "-"
        ],
        [
            "KGFK 140653Z AUTO 16008KT 10SM CLR M18/M19 A3022 "
        ]
    ],
    [
        [
            2023,
            3,
            14,
            2,
            50
        ],
        [
            "Closed",
            "Closed",
            "Closed",
            "-",
            "-"
        ],
        [
            "KGFK 140653Z AUTO 16008KT 10SM CLR M18/M19 A3022 "
        ]
    ],
    [
        [
            2023,
            3,
            14,
            3,
            0
        ],
        [
            "Closed",
            "Closed",
            "Closed",
            "-",
            "-"
        ],
        [
            "KGFK 140753Z AUTO 16010KT 10SM CLR M17/M19 A3020 "
        ]
    ],
    [
        [
            2023,
            3,
            14,
            3,
            10
        ],
        [
            "Closed",
            "Closed",
            "Closed",
            "-",
            "-"
        ],
        [
            "KGFK 140753Z AUTO 16010KT 10SM CLR M17/M19 A3020 "
        ]
    ],
    [
        [
            2023,
            3,
            14,
            3,
            20
        ],
        [
            "Closed",
            "Closed",
            "Closed",
            "-",
            "-"
        ],
        [
            "KGFK 140753Z AUTO 16010KT 10SM CLR M17/M19 A3020 "
        ]
    ],
    [
        [
            2023,
            3,
            14,
            3,
            30
        ],
        [
            "Closed",
            "Closed",
            "Closed",
            "-",
            "-"
        ],
        [
            "KGFK 140753Z AUTO 16010KT 10SM CLR M17/M19 A3020 "
        ]
    ],
    [
        [
            2023,
            3,
            14,
            3,
            40
        ],
        [
            "Closed",
            "Closed",
            "Closed",
            "-",
            "-"
        ],
        [
            "KGFK 140753Z AUTO 16010KT 10SM CLR M17/M19 A3020 "
        ]
    ],
    [
        [
            2023,
            3,
            14,
            3,
            50
        ],
        [
            "Closed",
            "Closed",
            "Closed",
            "-",
            "-"
        ],
        [
            "KGFK 140753Z AUTO 16010KT 10SM CLR M17/M19 A3020 "
        ]
    ],
    [
        [
            2023,
            3,
            14,
            4,
            0
        ],
        [
            "Closed",
            "Closed",
            "Closed",
            "-",
            "-"
        ],
        [
            "KGFK 140853Z AUTO 16009KT 10SM CLR M16/M18 A3018 "
        ]
    ],
    [
        [
            2023,
            3,
            14,
            4,
            10
        ],
        [
            "Closed",
            "Closed",
            "Closed",
            "-",
            "-"
        ],
        [
            "KGFK 140853Z AUTO 16009KT 10SM CLR M16/M18 A3018 "
        ]
    ],
    [
        [
            2023,
            3,
            14,
            4,
            20
        ],
        [
            "Closed",
            "Closed",
            "Closed",
            "-",
            "-"
        ],
        [
            "KGFK 140853Z AUTO 16009KT 10SM CLR M16/M18 A3018 "
        ]
    ],
    [
        [
            2023,
            3,
            14,
            4,
            30
        ],
        [
            "Closed",
            "Closed",
            "Closed",
            "-",
            "-"
        ],
        [
            "KGFK 140853Z AUTO 16009KT 10SM CLR M16/M18 A3018 "
        ]
    ],
    [
        [
            2023,
            3,
            14,
            4,
            40
        ],
        [
            "Closed",
            "Closed",
            "Closed",
            "-",
            "-"
        ],
        [
            "KGFK 140853Z AUTO 16009KT 10SM CLR M16/M18 A3018 "
        ]
    ],
    [
        [
            2023,
            3,
            14,
            4,
            50
        ],
        [
            "Closed",
            "Closed",
            "Closed",
            "-",
            "-"
        ],
        [
            "KGFK 140853Z AUTO 16009KT 10SM CLR M16/M18 A3018 "
        ]
    ],
    [
        [
            2023,
            3,
            14,
            5,
            0
        ],
        [
            "Closed",
            "Closed",
            "Closed",
            "-",
            "-"
        ],
        [
            "KGFK 140953Z AUTO 16012KT 10SM CLR M16/M18 A3014 "
        ]
    ],
    [
        [
            2023,
            3,
            14,
            5,
            10
        ],
        [
            "Closed",
            "Closed",
            "Closed",
            "-",
            "-"
        ],
        [
            "KGFK 140953Z AUTO 16012KT 10SM CLR M16/M18 A3014 "
        ]
    ],
    [
        [
            2023,
            3,
            14,
            5,
            20
        ],
        [
            "Closed",
            "Closed",
            "Closed",
            "-",
            "-"
        ],
        [
            "KGFK 140953Z AUTO 16012KT 10SM CLR M16/M18 A3014 "
        ]
    ],
    [
        [
            2023,
            3,
            14,
            5,
            30
        ],
        [
            "Closed",
            "Closed",
            "Closed",
            "-",
            "-"
        ],
        [
            "KGFK 140953Z AUTO 16012KT 10SM CLR M16/M18 A3014 "
        ]
    ],
    [
        [
            2023,
            3,
            14,
            5,
            40
        ],
        [
            "Closed",
            "Closed",
            "Closed",
            "-",
            "-"
        ],
        [
            "KGFK 140953Z AUTO 16012KT 10SM CLR M16/M18 A3014 "
        ]
    ],
    [
        [
            2023,
            3,
            14,
            5,
            50
        ],
        [
            "Closed",
            "Closed",
            "Closed",
            "-",
            "-"
        ],
        [
            "KGFK 141047Z 16011KT 4SM -SN BR BKN250 M17/M19 A3012 "
        ]
    ],
    [
        [
            2023,
            3,
            14,
            6,
            0
        ],
        [
            "Closed",
            "Closed",
            "Closed",
            "-",
            "-"
        ],
        [
            "KGFK 141053Z 16011KT 3SM -SN BR BKN250 M17/M18 A3012 "
        ]
    ],
    [
        [
            2023,
            3,
            14,
            6,
            10
        ],
        [
            "Closed",
            "Closed",
            "Closed",
            "-",
            "-"
        ],
        [
            "KGFK 141053Z 16011KT 3SM -SN BR BKN250 M17/M18 A3012 "
        ]
    ],
    [
        [
            2023,
            3,
            14,
            6,
            21
        ],
        [
            "Closed",
            "Closed",
            "Closed",
            "Jason Bensley",
            "Hanna Anderson"
        ],
        [
            "KGFK 141053Z 16011KT 3SM -SN BR BKN250 M17/M18 A3012 "
        ]
    ],
    [
        [
            2023,
            3,
            14,
            6,
            31
        ],
        [
            "No Dispatch",
            "No Dispatch",
            "Closed",
            "Jason Bensley",
            "Hanna Anderson"
        ],
        [
            "KGFK 141053Z 16011KT 3SM -SN BR BKN250 M17/M18 A3012 "
        ]
    ],
    [
        [
            2023,
            3,
            14,
            6,
            41
        ],
        [
            "No Dispatch",
            "No Dispatch",
            "Closed",
            "Jason Bensley",
            "Hanna Anderson"
        ],
        [
            "KGFK 141053Z 16011KT 3SM -SN BR BKN250 M17/M18 A3012 "
        ]
    ],
    [
        [
            2023,
            3,
            14,
            6,
            51
        ],
        [
            "No Fly",
            "No Fly",
            "Closed",
            "Jason Bensley",
            "Hanna Anderson"
        ],
        [
            "KGFK 141053Z 16011KT 3SM -SN BR BKN250 M17/M18 A3012 "
        ]
    ],
    [
        [
            2023,
            3,
            14,
            7,
            1
        ],
        [
            "No Fly",
            "No Fly",
            "Closed",
            "Jason Bensley",
            "Hanna Anderson"
        ],
        [
            "KGFK 141153Z 16012KT 1 1/2SM -SN BR FEW250 M16/M18 A3010 "
        ]
    ],
    [
        [
            2023,
            3,
            14,
            7,
            11
        ],
        [
            "No Fly",
            "No Fly",
            "Closed",
            "Jason Bensley",
            "Hanna Anderson"
        ],
        [
            "KGFK 141153Z 16012KT 1 1/2SM -SN BR FEW250 M16/M18 A3010 "
        ]
    ],
    [
        [
            2023,
            3,
            14,
            7,
            21
        ],
        [
            "No Fly",
            "No Fly",
            "Closed",
            "Jason Bensley",
            "Hanna Anderson"
        ],
        [
            "KGFK 141153Z 16012KT 1 1/2SM -SN BR FEW250 M16/M18 A3010 "
        ]
    ],
    [
        [
            2023,
            3,
            14,
            7,
            31
        ],
        [
            "No Fly",
            "No Fly",
            "Closed",
            "Jason Bensley",
            "Hanna Anderson"
        ],
        [
            "KGFK 141153Z 16012KT 1 1/2SM -SN BR FEW250 M16/M18 A3010 "
        ]
    ],
    [
        [
            2023,
            3,
            14,
            7,
            41
        ],
        [
            "No Fly",
            "No Fly",
            "Closed",
            "Jason Bensley",
            "Hanna Anderson"
        ],
        [
            "KGFK 141235Z 16012KT 1 1/2SM BR FEW250 M16/M18 A3009 "
        ]
    ],
    [
        [
            2023,
            3,
            14,
            7,
            51
        ],
        [
            "No Fly",
            "No Fly",
            "Closed",
            "Jason Bensley",
            "Hanna Anderson"
        ],
        [
            "KGFK 141235Z 16012KT 1 1/2SM BR FEW250 M16/M18 A3009 "
        ]
    ],
    [
        [
            2023,
            3,
            14,
            8,
            1
        ],
        [
            "No Fly",
            "No Fly",
            "Closed",
            "Jason Bensley",
            "Hanna Anderson"
        ],
        [
            "KGFK 141253Z 16014KT 1 1/2SM BR FEW003 FEW250 M16/M18 A3008 "
        ]
    ],
    [
        [
            2023,
            3,
            14,
            8,
            11
        ],
        [
            "No Fly",
            "No Fly",
            "Closed",
            "Jason Bensley",
            "Hanna Anderson"
        ],
        [
            "KGFK 141253Z 16014KT 1 1/2SM BR FEW003 FEW250 M16/M18 A3008 "
        ]
    ],
    [
        [
            2023,
            3,
            14,
            8,
            21
        ],
        [
            "No Fly",
            "No Fly",
            "Closed",
            "Jason Bensley",
            "Hanna Anderson"
        ],
        [
            "KGFK 141253Z 16014KT 1 1/2SM BR FEW003 FEW250 M16/M18 A3008 "
        ]
    ],
    [
        [
            2023,
            3,
            14,
            8,
            31
        ],
        [
            "No Fly",
            "No Fly",
            "Closed",
            "Jason Bensley",
            "Hanna Anderson"
        ],
        [
            "KGFK 141253Z 16014KT 1 1/2SM BR FEW003 FEW250 M16/M18 A3008 "
        ]
    ],
    [
        [
            2023,
            3,
            14,
            8,
            41
        ],
        [
            "No Fly",
            "No Fly",
            "Closed",
            "Jason Bensley",
            "Hanna Anderson"
        ],
        [
            "KGFK 141253Z 16014KT 1 1/2SM BR FEW003 FEW250 M16/M18 A3008 "
        ]
    ],
    [
        [
            2023,
            3,
            14,
            8,
            51
        ],
        [
            "No Fly",
            "No Fly",
            "Closed",
            "Jason Bensley",
            "Hanna Anderson"
        ],
        [
            "KGFK 141253Z 16014KT 1 1/2SM BR FEW003 FEW250 M16/M18 A3008 "
        ]
    ],
    [
        [
            2023,
            3,
            14,
            9,
            1
        ],
        [
            "No Fly",
            "No Fly",
            "Closed",
            "Jason Bensley",
            "Hanna Anderson"
        ],
        [
            "KGFK 141353Z 16014KT 2SM BLSN BR FEW250 M14/M16 A3006 "
        ]
    ],
    [
        [
            2023,
            3,
            14,
            9,
            11
        ],
        [
            "No Fly",
            "No Fly",
            "Closed",
            "Jason Bensley",
            "Hanna Anderson"
        ],
        [
            "KGFK 141353Z 16014KT 2SM BLSN BR FEW250 M14/M16 A3006 "
        ]
    ],
    [
        [
            2023,
            3,
            14,
            9,
            21
        ],
        [
            "No Fly",
            "No Fly",
            "Closed",
            "Jason Bensley",
            "Hanna Anderson"
        ],
        [
            "KGFK 141407Z 16015KT 5SM BLSN BR FEW250 M13/M16 A3006 "
        ]
    ],
    [
        [
            2023,
            3,
            14,
            9,
            31
        ],
        [
            "No Fly",
            "No Fly",
            "Closed",
            "Jason Bensley",
            "Hanna Anderson"
        ],
        [
            "KGFK 141407Z 16015KT 5SM BLSN BR FEW250 M13/M16 A3006 "
        ]
    ],
    [
        [
            2023,
            3,
            14,
            9,
            41
        ],
        [
            "No Fly",
            "No Fly",
            "Closed",
            "Jason Bensley",
            "Hanna Anderson"
        ],
        [
            "KGFK 141407Z 16015KT 5SM BLSN BR FEW250 M13/M16 A3006 "
        ]
    ],
    [
        [
            2023,
            3,
            14,
            9,
            51
        ],
        [
            "No Fly",
            "No Fly",
            "Closed",
            "Jason Bensley",
            "Hanna Anderson"
        ],
        [
            "KGFK 141407Z 16015KT 5SM BLSN BR FEW250 M13/M16 A3006 "
        ]
    ],
    [
        [
            2023,
            3,
            14,
            10,
            1
        ],
        [
            "No Fly",
            "No Fly",
            "Closed",
            "Jason Bensley",
            "Hanna Anderson"
        ],
        [
            "KGFK 141453Z 17014G23KT 7SM FEW250 M12/M14 A3004 "
        ]
    ],
    [
        [
            2023,
            3,
            14,
            10,
            11
        ],
        [
            "Dual Local Only",
            "Dual Local Only",
            "Closed",
            "Jason Bensley",
            "Hanna Anderson"
        ],
        [
            "KGFK 141453Z 17014G23KT 7SM FEW250 M12/M14 A3004 "
        ]
    ],
    [
        [
            2023,
            3,
            14,
            10,
            21
        ],
        [
            "Dual Local Only",
            "Dual Local Only",
            "Closed",
            "Jason Bensley",
            "Hanna Anderson"
        ],
        [
            "KGFK 141453Z 17014G23KT 7SM FEW250 M12/M14 A3004 "
        ]
    ],
    [
        [
            2023,
            3,
            14,
            10,
            31
        ],
        [
            "Dual Local Only",
            "Dual Local Only",
            "Closed",
            "Jason Bensley",
            "Hanna Anderson"
        ],
        [
            "KGFK 141453Z 17014G23KT 7SM FEW250 M12/M14 A3004 "
        ]
    ],
    [
        [
            2023,
            3,
            14,
            10,
            41
        ],
        [
            "Dual Local Only",
            "Dual Local Only",
            "Closed",
            "Jason Bensley",
            "Hanna Anderson"
        ],
        [
            "KGFK 141453Z 17014G23KT 7SM FEW250 M12/M14 A3004 "
        ]
    ],
    [
        [
            2023,
            3,
            14,
            10,
            51
        ],
        [
            "Dual Local Only",
            "Dual Local Only",
            "Closed",
            "Jason Bensley",
            "Hanna Anderson"
        ],
        [
            "KGFK 141453Z 17014G23KT 7SM FEW250 M12/M14 A3004 "
        ]
    ],
    [
        [
            2023,
            3,
            14,
            11,
            1
        ],
        [
            "Dual Local Only",
            "Dual Local Only",
            "Closed",
            "Jason Bensley",
            "Hanna Anderson"
        ],
        [
            "KGFK 141553Z 17016KT 7SM FEW250 M10/M12 A3003 "
        ]
    ],
    [
        [
            2023,
            3,
            14,
            11,
            11
        ],
        [
            "Dual Local Only",
            "Dual Local Only",
            "Closed",
            "Jason Bensley",
            "Faiza Ashraf"
        ],
        [
            "KGFK 141553Z 17016KT 7SM FEW250 M10/M12 A3003 "
        ]
    ],
    [
        [
            2023,
            3,
            14,
            11,
            21
        ],
        [
            "Dual Local Only",
            "Dual Local Only",
            "Closed",
            "Jason Bensley",
            "Faiza Ashraf"
        ],
        [
            "KGFK 141553Z 17016KT 7SM FEW250 M10/M12 A3003 "
        ]
    ],
    [
        [
            2023,
            3,
            14,
            11,
            31
        ],
        [
            "Dual Local Only",
            "Dual Local Only",
            "Closed",
            "Jason Bensley",
            "Faiza Ashraf"
        ],
        [
            "KGFK 141553Z 17016KT 7SM FEW250 M10/M12 A3003 "
        ]
    ],
    [
        [
            2023,
            3,
            14,
            11,
            41
        ],
        [
            "Dual Local Only",
            "Dual Local Only",
            "Closed",
            "Jason Bensley",
            "Faiza Ashraf"
        ],
        [
            "KGFK 141553Z 17016KT 7SM FEW250 M10/M12 A3003 "
        ]
    ],
    [
        [
            2023,
            3,
            14,
            11,
            51
        ],
        [
            "Dual Local Only",
            "Dual Local Only",
            "Closed",
            "Jason Bensley",
            "Faiza Ashraf"
        ],
        [
            "KGFK 141553Z 17016KT 7SM FEW250 M10/M12 A3003 "
        ]
    ],
    [
        [
            2023,
            3,
            14,
            12,
            1
        ],
        [
            "Dual Local Only",
            "Dual Local Only",
            "Closed",
            "Jason Bensley",
            "Faiza Ashraf"
        ],
        [
            "KGFK 141553Z 17016KT 7SM FEW250 M10/M12 A3003 "
        ]
    ],
    [
        [
            2023,
            3,
            14,
            12,
            11
        ],
        [
            "Dual Local Only",
            "Dual Local Only",
            "Closed",
            "Jason Bensley",
            "Faiza Ashraf"
        ],
        [
            "KGFK 141653Z 18016KT 7SM FEW250 M07/M10 A3002 "
        ]
    ],
    [
        [
            2023,
            3,
            14,
            12,
            21
        ],
        [
            "Dual Local Only",
            "Dual Local Only",
            "Closed",
            "Jason Bensley",
            "Faiza Ashraf"
        ],
        [
            "KGFK 141653Z 18016KT 7SM FEW250 M07/M10 A3002 "
        ]
    ],
    [
        [
            2023,
            3,
            14,
            12,
            31
        ],
        [
            "Dual Local Only",
            "Dual Local Only",
            "Closed",
            "Jason Bensley",
            "Faiza Ashraf"
        ],
        [
            "KGFK 141653Z 18016KT 7SM FEW250 M07/M10 A3002 "
        ]
    ],
    [
        [
            2023,
            3,
            14,
            12,
            41
        ],
        [
            "Dual Local Only",
            "Dual Local Only",
            "Closed",
            "Jason Bensley",
            "Faiza Ashraf"
        ],
        [
            "KGFK 141653Z 18016KT 7SM FEW250 M07/M10 A3002 "
        ]
    ],
    [
        [
            2023,
            3,
            14,
            12,
            51
        ],
        [
            "Dual Local Only",
            "Dual Local Only",
            "Closed",
            "Jason Bensley",
            "Faiza Ashraf"
        ],
        [
            "KGFK 141653Z 18016KT 7SM FEW250 M07/M10 A3002 "
        ]
    ],
    [
        [
            2023,
            3,
            14,
            13,
            1
        ],
        [
            "Dual Local Only",
            "Dual Local Only",
            "Closed",
            "Jason Bensley",
            "Faiza Ashraf"
        ],
        [
            "KGFK 141753Z 17016KT 9SM FEW250 M06/M09 A2999 "
        ]
    ],
    [
        [
            2023,
            3,
            14,
            13,
            11
        ],
        [
            "Dual Local Only",
            "Dual Local Only",
            "Closed",
            "Jason Bensley",
            "Faiza Ashraf"
        ],
        [
            "KGFK 141753Z 17016KT 9SM FEW250 M06/M09 A2999 "
        ]
    ],
    [
        [
            2023,
            3,
            14,
            13,
            22
        ],
        [
            "Dual Local Only",
            "Dual Local Only",
            "Closed",
            "Jason Bensley",
            "Faiza Ashraf"
        ],
        [
            "KGFK 141753Z 17016KT 9SM FEW250 M06/M09 A2999 "
        ]
    ],
    [
        [
            2023,
            3,
            14,
            13,
            32
        ],
        [
            "Dual Local Only",
            "Dual Local Only",
            "Closed",
            "Jason Bensley",
            "Faiza Ashraf"
        ],
        [
            "KGFK 141753Z 17016KT 9SM FEW250 M06/M09 A2999 "
        ]
    ],
    [
        [
            2023,
            3,
            14,
            13,
            42
        ],
        [
            "Dual Local Only",
            "Dual Local Only",
            "Closed",
            "Jason Bensley",
            "Faiza Ashraf"
        ],
        [
            "KGFK 141753Z 17016KT 9SM FEW250 M06/M09 A2999 "
        ]
    ],
    [
        [
            2023,
            3,
            14,
            13,
            52
        ],
        [
            "Dual Local Only",
            "Dual Local Only",
            "Closed",
            "Jason Bensley",
            "Faiza Ashraf"
        ],
        [
            "KGFK 141753Z 17016KT 9SM FEW250 M06/M09 A2999 "
        ]
    ],
    [
        [
            2023,
            3,
            14,
            14,
            2
        ],
        [
            "Dual Local Only",
            "Dual Local Only",
            "Closed",
            "Jason Bensley",
            "Faiza Ashraf"
        ],
        [
            "KGFK 141753Z 17016KT 9SM FEW250 M06/M09 A2999 "
        ]
    ],
    [
        [
            2023,
            3,
            14,
            14,
            12
        ],
        [
            "Dual Local Only",
            "Dual Local Only",
            "Closed",
            "Aaron Fettig",
            "Faiza Ashraf"
        ],
        [
            "KGFK 141853Z 17018G29KT 5SM BLSN FEW250 M04/M07 A2994 "
        ]
    ],
    [
        [
            2023,
            3,
            14,
            14,
            22
        ],
        [
            "No Dispatch",
            "No Dispatch",
            "Closed",
            "Aaron Fettig",
            "Faiza Ashraf"
        ],
        [
            "KGFK 141853Z 17018G29KT 5SM BLSN FEW250 M04/M07 A2994 "
        ]
    ],
    [
        [
            2023,
            3,
            14,
            14,
            32
        ],
        [
            "No Dispatch",
            "No Dispatch",
            "Closed",
            "Aaron Fettig",
            "Faiza Ashraf"
        ],
        [
            "KGFK 141910Z 17021G31KT 3SM BLSN FEW000 FEW250 M04/M07 A2993 "
        ]
    ],
    [
        [
            2023,
            3,
            14,
            14,
            42
        ],
        [
            "No Dispatch",
            "No Dispatch",
            "Closed",
            "Aaron Fettig",
            "Faiza Ashraf"
        ],
        [
            "KGFK 141910Z 17021G31KT 3SM BLSN FEW000 FEW250 M04/M07 A2993 "
        ]
    ],
    [
        [
            2023,
            3,
            14,
            14,
            52
        ],
        [
            "Turbine Only",
            "No Dispatch",
            "Closed",
            "Aaron Fettig",
            "Faiza Ashraf"
        ],
        [
            "KGFK 141910Z 17021G31KT 3SM BLSN FEW000 FEW250 M04/M07 A2993 "
        ]
    ],
    [
        [
            2023,
            3,
            14,
            15,
            2
        ],
        [
            "Turbine Only",
            "No Dispatch",
            "Closed",
            "Aaron Fettig",
            "Faiza Ashraf"
        ],
        [
            "KGFK 141953Z 17020G30KT 3SM BLSN FEW000 FEW250 M04/M07 A2990 "
        ]
    ],
    [
        [
            2023,
            3,
            14,
            15,
            12
        ],
        [
            "No Dispatch",
            "No Dispatch",
            "Closed",
            "Aaron Fettig",
            "Vander Dean"
        ],
        [
            "KGFK 141953Z 17020G30KT 3SM BLSN FEW000 FEW250 M04/M07 A2990 "
        ]
    ],
    [
        [
            2023,
            3,
            14,
            15,
            22
        ],
        [
            "No Dispatch",
            "No Dispatch",
            "Closed",
            "Aaron Fettig",
            "Vander Dean"
        ],
        [
            "KGFK 141953Z 17020G30KT 3SM BLSN FEW000 FEW250 M04/M07 A2990 "
        ]
    ],
    [
        [
            2023,
            3,
            14,
            15,
            32
        ],
        [
            "No Dispatch",
            "No Dispatch",
            "Closed",
            "Aaron Fettig",
            "Vander Dean"
        ],
        [
            "KGFK 141953Z 17020G30KT 3SM BLSN FEW000 FEW250 M04/M07 A2990 "
        ]
    ],
    [
        [
            2023,
            3,
            14,
            15,
            42
        ],
        [
            "No Dispatch",
            "No Dispatch",
            "Closed",
            "Aaron Fettig",
            "Vander Dean"
        ],
        [
            "KGFK 141953Z 17020G30KT 3SM BLSN FEW000 FEW250 M04/M07 A2990 "
        ]
    ],
    [
        [
            2023,
            3,
            14,
            15,
            52
        ],
        [
            "No Dispatch",
            "No Dispatch",
            "Closed",
            "Aaron Fettig",
            "Vander Dean"
        ],
        [
            "KGFK 141953Z 17020G30KT 3SM BLSN FEW000 FEW250 M04/M07 A2990 "
        ]
    ],
    [
        [
            2023,
            3,
            14,
            16,
            2
        ],
        [
            "No Dispatch",
            "No Dispatch",
            "Closed",
            "Aaron Fettig",
            "Vander Dean"
        ],
        [
            "KGFK 142053Z 17021G31KT 3SM BLSN FEW000 FEW250 M04/M07 A2990 "
        ]
    ],
    [
        [
            2023,
            3,
            14,
            16,
            12
        ],
        [
            "No Dispatch",
            "No Dispatch",
            "Closed",
            "Aaron Fettig",
            "Vander Dean"
        ],
        [
            "KGFK 142053Z 17021G31KT 3SM BLSN FEW000 FEW250 M04/M07 A2990 "
        ]
    ],
    [
        [
            2023,
            3,
            14,
            16,
            22
        ],
        [
            "No Dispatch",
            "No Dispatch",
            "Closed",
            "Aaron Fettig",
            "Vander Dean"
        ],
        [
            "KGFK 142053Z 17021G31KT 3SM BLSN FEW000 FEW250 M04/M07 A2990 "
        ]
    ],
    [
        [
            2023,
            3,
            14,
            16,
            32
        ],
        [
            "No Dispatch",
            "No Dispatch",
            "Closed",
            "Aaron Fettig",
            "Vander Dean"
        ],
        [
            "KGFK 142053Z 17021G31KT 3SM BLSN FEW000 FEW250 M04/M07 A2990 "
        ]
    ],
    [
        [
            2023,
            3,
            14,
            16,
            42
        ],
        [
            "No Dispatch",
            "No Dispatch",
            "Closed",
            "Aaron Fettig",
            "Vander Dean"
        ],
        [
            "KGFK 142053Z 17021G31KT 3SM BLSN FEW000 FEW250 M04/M07 A2990 "
        ]
    ],
    [
        [
            2023,
            3,
            14,
            16,
            52
        ],
        [
            "No Dispatch",
            "No Dispatch",
            "Closed",
            "Aaron Fettig",
            "Vander Dean"
        ],
        [
            "KGFK 142053Z 17021G31KT 3SM BLSN FEW000 FEW250 M04/M07 A2990 "
        ]
    ],
    [
        [
            2023,
            3,
            14,
            17,
            2
        ],
        [
            "No Dispatch",
            "No Dispatch",
            "Closed",
            "Aaron Fettig",
            "Vander Dean"
        ],
        [
            "KGFK 142153Z 18025G34KT 3SM BLSN FEW000 FEW250 M03/M06 A2988 "
        ]
    ],
    [
        [
            2023,
            3,
            14,
            17,
            12
        ],
        [
            "No Dispatch",
            "No Dispatch",
            "Closed",
            "Aaron Fettig",
            "Vander Dean"
        ],
        [
            "KGFK 142153Z 18025G34KT 3SM BLSN FEW000 FEW250 M03/M06 A2988 "
        ]
    ],
    [
        [
            2023,
            3,
            14,
            17,
            22
        ],
        [
            "No Dispatch",
            "No Dispatch",
            "Closed",
            "Aaron Fettig",
            "Vander Dean"
        ],
        [
            "KGFK 142153Z 18025G34KT 3SM BLSN FEW000 FEW250 M03/M06 A2988 "
        ]
    ],
    [
        [
            2023,
            3,
            14,
            17,
            32
        ],
        [
            "No Dispatch",
            "No Dispatch",
            "Closed",
            "Aaron Fettig",
            "Vander Dean"
        ],
        [
            "KGFK 142153Z 18025G34KT 3SM BLSN FEW000 FEW250 M03/M06 A2988 "
        ]
    ],
    [
        [
            2023,
            3,
            14,
            17,
            42
        ],
        [
            "No Dispatch",
            "No Dispatch",
            "Closed",
            "Aaron Fettig",
            "Vander Dean"
        ],
        [
            "KGFK 142153Z 18025G34KT 3SM BLSN FEW000 FEW250 M03/M06 A2988 "
        ]
    ],
    [
        [
            2023,
            3,
            14,
            17,
            52
        ],
        [
            "No Dispatch",
            "No Dispatch",
            "Closed",
            "Aaron Fettig",
            "Vander Dean"
        ],
        [
            "KGFK 142153Z 18025G34KT 3SM BLSN FEW000 FEW250 M03/M06 A2988 "
        ]
    ],
    [
        [
            2023,
            3,
            14,
            18,
            2
        ],
        [
            "No Dispatch",
            "No Dispatch",
            "Closed",
            "Aaron Fettig",
            "Vander Dean"
        ],
        [
            "KGFK 142253Z 18025G31KT 3SM BLSN FEW000 BKN250 M03/M06 A2987 "
        ]
    ],
    [
        [
            2023,
            3,
            14,
            18,
            12
        ],
        [
            "No Dispatch",
            "No Dispatch",
            "Closed",
            "Aaron Fettig",
            "Vander Dean"
        ],
        [
            "KGFK 142253Z 18025G31KT 3SM BLSN FEW000 BKN250 M03/M06 A2987 "
        ]
    ],
    [
        [
            2023,
            3,
            14,
            18,
            22
        ],
        [
            "No Dispatch",
            "No Dispatch",
            "Closed",
            "Aaron Fettig",
            "Vander Dean"
        ],
        [
            "KGFK 142253Z 18025G31KT 3SM BLSN FEW000 BKN250 M03/M06 A2987 "
        ]
    ],
    [
        [
            2023,
            3,
            14,
            18,
            33
        ],
        [
            "No Dispatch",
            "No Dispatch",
            "Closed",
            "Aaron Fettig",
            "Vander Dean"
        ],
        [
            "KGFK 142253Z 18025G31KT 3SM BLSN FEW000 BKN250 M03/M06 A2987 "
        ]
    ],
    [
        [
            2023,
            3,
            14,
            18,
            43
        ],
        [
            "No Dispatch",
            "No Dispatch",
            "Closed",
            "Aaron Fettig",
            "Vander Dean"
        ],
        [
            "KGFK 142253Z 18025G31KT 3SM BLSN FEW000 BKN250 M03/M06 A2987 "
        ]
    ],
    [
        [
            2023,
            3,
            14,
            18,
            53
        ],
        [
            "No Dispatch",
            "No Dispatch",
            "Closed",
            "Aaron Fettig",
            "Vander Dean"
        ],
        [
            "KGFK 142253Z 18025G31KT 3SM BLSN FEW000 BKN250 M03/M06 A2987 "
        ]
    ],
    [
        [
            2023,
            3,
            14,
            19,
            3
        ],
        [
            "Closed",
            "Closed",
            "Closed",
            "-",
            "-"
        ],
        [
            "KGFK 142353Z 18020G32KT 3SM BLSN FEW000 BKN250 M03/M06 A2989 "
        ]
    ],
    [
        [
            2023,
            3,
            14,
            19,
            13
        ],
        [
            "Closed",
            "Closed",
            "Closed",
            "-",
            "-"
        ],
        [
            "KGFK 142353Z 18020G32KT 3SM BLSN FEW000 BKN250 M03/M06 A2989 "
        ]
    ],
    [
        [
            2023,
            3,
            14,
            19,
            23
        ],
        [
            "Closed",
            "Closed",
            "Closed",
            "-",
            "-"
        ],
        [
            "KGFK 142353Z 18020G32KT 3SM BLSN FEW000 BKN250 M03/M06 A2989 "
        ]
    ],
    [
        [
            2023,
            3,
            14,
            19,
            33
        ],
        [
            "Closed",
            "Closed",
            "Closed",
            "-",
            "-"
        ],
        [
            "KGFK 142353Z 18020G32KT 3SM BLSN FEW000 BKN250 M03/M06 A2989 "
        ]
    ],
    [
        [
            2023,
            3,
            14,
            19,
            43
        ],
        [
            "Closed",
            "Closed",
            "Closed",
            "-",
            "-"
        ],
        [
            "KGFK 142353Z 18020G32KT 3SM BLSN FEW000 BKN250 M03/M06 A2989 "
        ]
    ],
    [
        [
            2023,
            3,
            14,
            19,
            53
        ],
        [
            "Closed",
            "Closed",
            "Closed",
            "-",
            "-"
        ],
        [
            "KGFK 142353Z 18020G32KT 3SM BLSN FEW000 BKN250 M03/M06 A2989 "
        ]
    ],
    [
        [
            2023,
            3,
            14,
            20,
            3
        ],
        [
            "Closed",
            "Closed",
            "Closed",
            "-",
            "-"
        ],
        [
            "KGFK 150053Z 17019G30KT 4SM BLSN FEW000 BKN180 M04/M06 A2984 "
        ]
    ],
    [
        [
            2023,
            3,
            14,
            20,
            13
        ],
        [
            "Closed",
            "Closed",
            "Closed",
            "-",
            "-"
        ],
        [
            "KGFK 150053Z 17019G30KT 4SM BLSN FEW000 BKN180 M04/M06 A2984 "
        ]
    ],
    [
        [
            2023,
            3,
            14,
            20,
            23
        ],
        [
            "Closed",
            "Closed",
            "Closed",
            "-",
            "-"
        ],
        [
            "KGFK 150053Z 17019G30KT 4SM BLSN FEW000 BKN180 M04/M06 A2984 "
        ]
    ],
    [
        [
            2023,
            3,
            14,
            20,
            33
        ],
        [
            "Closed",
            "Closed",
            "Closed",
            "-",
            "-"
        ],
        [
            "KGFK 150053Z 17019G30KT 4SM BLSN FEW000 BKN180 M04/M06 A2984 "
        ]
    ],
    [
        [
            2023,
            3,
            14,
            20,
            43
        ],
        [
            "Closed",
            "Closed",
            "Closed",
            "-",
            "-"
        ],
        [
            "KGFK 150053Z 17019G30KT 4SM BLSN FEW000 BKN180 M04/M06 A2984 "
        ]
    ],
    [
        [
            2023,
            3,
            14,
            20,
            53
        ],
        [
            "Closed",
            "Closed",
            "Closed",
            "-",
            "-"
        ],
        [
            "KGFK 150053Z 17019G30KT 4SM BLSN FEW000 BKN180 M04/M06 A2984 "
        ]
    ],
    [
        [
            2023,
            3,
            14,
            21,
            3
        ],
        [
            "Closed",
            "Closed",
            "Closed",
            "-",
            "-"
        ],
        [
            "KGFK 150153Z 18022KT 5SM BLSN SCT150 BKN210 M04/M06 A2985 "
        ]
    ],
    [
        [
            2023,
            3,
            14,
            21,
            13
        ],
        [
            "Closed",
            "Closed",
            "Closed",
            "-",
            "-"
        ],
        [
            "KGFK 150153Z 18022KT 5SM BLSN SCT150 BKN210 M04/M06 A2985 "
        ]
    ],
    [
        [
            2023,
            3,
            14,
            21,
            23
        ],
        [
            "Closed",
            "Closed",
            "Closed",
            "-",
            "-"
        ],
        [
            "KGFK 150153Z 18022KT 5SM BLSN SCT150 BKN210 M04/M06 A2985 "
        ]
    ],
    [
        [
            2023,
            3,
            14,
            21,
            33
        ],
        [
            "Closed",
            "Closed",
            "Closed",
            "-",
            "-"
        ],
        [
            "KGFK 150153Z 18022KT 5SM BLSN SCT150 BKN210 M04/M06 A2985 "
        ]
    ],
    [
        [
            2023,
            3,
            14,
            21,
            43
        ],
        [
            "Closed",
            "Closed",
            "Closed",
            "-",
            "-"
        ],
        [
            "KGFK 150153Z 18022KT 5SM BLSN SCT150 BKN210 M04/M06 A2985 "
        ]
    ],
    [
        [
            2023,
            3,
            14,
            21,
            53
        ],
        [
            "Closed",
            "Closed",
            "Closed",
            "-",
            "-"
        ],
        [
            "KGFK 150153Z 18022KT 5SM BLSN SCT150 BKN210 M04/M06 A2985 "
        ]
    ],
    [
        [
            2023,
            3,
            14,
            22,
            3
        ],
        [
            "Closed",
            "Closed",
            "Closed",
            "-",
            "-"
        ],
        [
            "KGFK 150253Z 18022KT 7SM SCT210 M04/M07 A2984 "
        ]
    ],
    [
        [
            2023,
            3,
            14,
            22,
            13
        ],
        [
            "Closed",
            "Closed",
            "Closed",
            "-",
            "-"
        ],
        [
            "KGFK 150253Z 18022KT 7SM SCT210 M04/M07 A2984 "
        ]
    ],
    [
        [
            2023,
            3,
            14,
            22,
            23
        ],
        [
            "Closed",
            "Closed",
            "Closed",
            "-",
            "-"
        ],
        [
            "KGFK 150253Z 18022KT 7SM SCT210 M04/M07 A2984 "
        ]
    ],
    [
        [
            2023,
            3,
            14,
            22,
            33
        ],
        [
            "Closed",
            "Closed",
            "Closed",
            "-",
            "-"
        ],
        [
            "KGFK 150253Z 18022KT 7SM SCT210 M04/M07 A2984 "
        ]
    ],
    [
        [
            2023,
            3,
            14,
            22,
            43
        ],
        [
            "Closed",
            "Closed",
            "Closed",
            "-",
            "-"
        ],
        [
            "KGFK 150253Z 18022KT 7SM SCT210 M04/M07 A2984 "
        ]
    ],
    [
        [
            2023,
            3,
            14,
            22,
            53
        ],
        [
            "Closed",
            "Closed",
            "Closed",
            "-",
            "-"
        ],
        [
            "KGFK 150253Z 18022KT 7SM SCT210 M04/M07 A2984 "
        ]
    ],
    [
        [
            2023,
            3,
            14,
            23,
            3
        ],
        [
            "Closed",
            "Closed",
            "Closed",
            "-",
            "-"
        ],
        [
            "KGFK 150353Z 19018KT 10SM SCT210 M05/M07 A2985 "
        ]
    ],
    [
        [
            2023,
            3,
            14,
            23,
            13
        ],
        [
            "Closed",
            "Closed",
            "Closed",
            "-",
            "-"
        ],
        [
            "KGFK 150353Z 19018KT 10SM SCT210 M05/M07 A2985 "
        ]
    ],
    [
        [
            2023,
            3,
            14,
            23,
            23
        ],
        [
            "Closed",
            "Closed",
            "Closed",
            "-",
            "-"
        ],
        [
            "KGFK 150353Z 19018KT 10SM SCT210 M05/M07 A2985 "
        ]
    ],
    [
        [
            2023,
            3,
            14,
            23,
            33
        ],
        [
            "Closed",
            "Closed",
            "Closed",
            "-",
            "-"
        ],
        [
            "KGFK 150353Z 19018KT 10SM SCT210 M05/M07 A2985 "
        ]
    ],
    [
        [
            2023,
            3,
            14,
            23,
            43
        ],
        [
            "Closed",
            "Closed",
            "Closed",
            "-",
            "-"
        ],
        [
            "KGFK 150353Z 19018KT 10SM SCT210 M05/M07 A2985 "
        ]
    ],
    [
        [
            2023,
            3,
            14,
            23,
            53
        ],
        [
            "Closed",
            "Closed",
            "Closed",
            "-",
            "-"
        ],
        [
            "KGFK 150353Z 19018KT 10SM SCT210 M05/M07 A2985 "
        ]
    ],
    [
        [
            2023,
            3,
            15,
            0,
            3
        ],
        [
            "Closed",
            "Closed",
            "Closed",
            "-",
            "-"
        ],
        [
            "KGFK 150453Z AUTO 20014KT 10SM CLR M06/M08 A2985 "
        ]
    ],
    [
        [
            2023,
            3,
            15,
            0,
            13
        ],
        [
            "Closed",
            "Closed",
            "Closed",
            "-",
            "-"
        ],
        [
            "KGFK 150453Z AUTO 20014KT 10SM CLR M06/M08 A2985 "
        ]
    ],
    [
        [
            2023,
            3,
            15,
            0,
            23
        ],
        [
            "Closed",
            "Closed",
            "Closed",
            "-",
            "-"
        ],
        [
            "KGFK 150453Z AUTO 20014KT 10SM CLR M06/M08 A2985 "
        ]
    ],
    [
        [
            2023,
            3,
            15,
            0,
            33
        ],
        [
            "Closed",
            "Closed",
            "Closed",
            "-",
            "-"
        ],
        [
            "KGFK 150453Z AUTO 20014KT 10SM CLR M06/M08 A2985 "
        ]
    ],
    [
        [
            2023,
            3,
            15,
            0,
            43
        ],
        [
            "Closed",
            "Closed",
            "Closed",
            "-",
            "-"
        ],
        [
            "KGFK 150453Z AUTO 20014KT 10SM CLR M06/M08 A2985 "
        ]
    ],
    [
        [
            2023,
            3,
            15,
            0,
            53
        ],
        [
            "Closed",
            "Closed",
            "Closed",
            "-",
            "-"
        ],
        [
            "KGFK 150453Z AUTO 20014KT 10SM CLR M06/M08 A2985 "
        ]
    ],
    [
        [
            2023,
            3,
            15,
            1,
            3
        ],
        [
            "Closed",
            "Closed",
            "Closed",
            "-",
            "-"
        ],
        [
            "KGFK 150553Z AUTO 18016KT 10SM CLR M06/M08 A2984 "
        ]
    ],
    [
        [
            2023,
            3,
            15,
            1,
            13
        ],
        [
            "Closed",
            "Closed",
            "Closed",
            "-",
            "-"
        ],
        [
            "KGFK 150553Z AUTO 18016KT 10SM CLR M06/M08 A2984 "
        ]
    ],
    [
        [
            2023,
            3,
            15,
            1,
            24
        ],
        [
            "Closed",
            "Closed",
            "Closed",
            "-",
            "-"
        ],
        [
            "KGFK 150553Z AUTO 18016KT 10SM CLR M06/M08 A2984 "
        ]
    ],
    [
        [
            2023,
            3,
            15,
            1,
            34
        ],
        [
            "Closed",
            "Closed",
            "Closed",
            "-",
            "-"
        ],
        [
            "KGFK 150553Z AUTO 18016KT 10SM CLR M06/M08 A2984 "
        ]
    ],
    [
        [
            2023,
            3,
            15,
            1,
            44
        ],
        [
            "Closed",
            "Closed",
            "Closed",
            "-",
            "-"
        ],
        [
            "KGFK 150553Z AUTO 18016KT 10SM CLR M06/M08 A2984 "
        ]
    ],
    [
        [
            2023,
            3,
            15,
            1,
            54
        ],
        [
            "Closed",
            "Closed",
            "Closed",
            "-",
            "-"
        ],
        [
            "KGFK 150553Z AUTO 18016KT 10SM CLR M06/M08 A2984 "
        ]
    ],
    [
        [
            2023,
            3,
            15,
            2,
            4
        ],
        [
            "Closed",
            "Closed",
            "Closed",
            "-",
            "-"
        ],
        [
            "KGFK 150653Z AUTO 17009KT 10SM CLR M07/M09 A2984 "
        ]
    ],
    [
        [
            2023,
            3,
            15,
            2,
            14
        ],
        [
            "Closed",
            "Closed",
            "Closed",
            "-",
            "-"
        ],
        [
            "KGFK 150653Z AUTO 17009KT 10SM CLR M07/M09 A2984 "
        ]
    ],
    [
        [
            2023,
            3,
            15,
            2,
            24
        ],
        [
            "Closed",
            "Closed",
            "Closed",
            "-",
            "-"
        ],
        [
            "KGFK 150653Z AUTO 17009KT 10SM CLR M07/M09 A2984 "
        ]
    ],
    [
        [
            2023,
            3,
            15,
            2,
            34
        ],
        [
            "Closed",
            "Closed",
            "Closed",
            "-",
            "-"
        ],
        [
            "KGFK 150653Z AUTO 17009KT 10SM CLR M07/M09 A2984 "
        ]
    ],
    [
        [
            2023,
            3,
            15,
            2,
            44
        ],
        [
            "Closed",
            "Closed",
            "Closed",
            "-",
            "-"
        ],
        [
            "KGFK 150653Z AUTO 17009KT 10SM CLR M07/M09 A2984 "
        ]
    ],
    [
        [
            2023,
            3,
            15,
            2,
            54
        ],
        [
            "Closed",
            "Closed",
            "Closed",
            "-",
            "-"
        ],
        [
            "KGFK 150653Z AUTO 17009KT 10SM CLR M07/M09 A2984 "
        ]
    ],
    [
        [
            2023,
            3,
            15,
            3,
            4
        ],
        [
            "Closed",
            "Closed",
            "Closed",
            "-",
            "-"
        ],
        [
            "KGFK 150653Z AUTO 17009KT 10SM CLR M07/M09 A2984 "
        ]
    ],
    [
        [
            2023,
            3,
            15,
            3,
            14
        ],
        [
            "Closed",
            "Closed",
            "Closed",
            "-",
            "-"
        ],
        [
            "KGFK 150753Z AUTO 18009KT 10SM CLR M07/M09 A2984 "
        ]
    ],
    [
        [
            2023,
            3,
            15,
            3,
            24
        ],
        [
            "Closed",
            "Closed",
            "Closed",
            "-",
            "-"
        ],
        [
            "KGFK 150753Z AUTO 18009KT 10SM CLR M07/M09 A2984 "
        ]
    ],
    [
        [
            2023,
            3,
            15,
            3,
            34
        ],
        [
            "Closed",
            "Closed",
            "Closed",
            "-",
            "-"
        ],
        [
            "KGFK 150753Z AUTO 18009KT 10SM CLR M07/M09 A2984 "
        ]
    ],
    [
        [
            2023,
            3,
            15,
            3,
            44
        ],
        [
            "Closed",
            "Closed",
            "Closed",
            "-",
            "-"
        ],
        [
            "KGFK 150753Z AUTO 18009KT 10SM CLR M07/M09 A2984 "
        ]
    ],
    [
        [
            2023,
            3,
            15,
            3,
            54
        ],
        [
            "Closed",
            "Closed",
            "Closed",
            "-",
            "-"
        ],
        [
            "KGFK 150753Z AUTO 18009KT 10SM CLR M07/M09 A2984 "
        ]
    ],
    [
        [
            2023,
            3,
            15,
            4,
            4
        ],
        [
            "Closed",
            "Closed",
            "Closed",
            "-",
            "-"
        ],
        [
            "KGFK 150853Z AUTO 20007KT 10SM CLR M09/M12 A2984 "
        ]
    ],
    [
        [
            2023,
            3,
            15,
            4,
            14
        ],
        [
            "Closed",
            "Closed",
            "Closed",
            "-",
            "-"
        ],
        [
            "KGFK 150853Z AUTO 20007KT 10SM CLR M09/M12 A2984 "
        ]
    ],
    [
        [
            2023,
            3,
            15,
            4,
            24
        ],
        [
            "Closed",
            "Closed",
            "Closed",
            "-",
            "-"
        ],
        [
            "KGFK 150853Z AUTO 20007KT 10SM CLR M09/M12 A2984 "
        ]
    ],
    [
        [
            2023,
            3,
            15,
            4,
            34
        ],
        [
            "Closed",
            "Closed",
            "Closed",
            "-",
            "-"
        ],
        [
            "KGFK 150853Z AUTO 20007KT 10SM CLR M09/M12 A2984 "
        ]
    ],
    [
        [
            2023,
            3,
            15,
            4,
            44
        ],
        [
            "Closed",
            "Closed",
            "Closed",
            "-",
            "-"
        ],
        [
            "KGFK 150853Z AUTO 20007KT 10SM CLR M09/M12 A2984 "
        ]
    ],
    [
        [
            2023,
            3,
            15,
            4,
            54
        ],
        [
            "Closed",
            "Closed",
            "Closed",
            "-",
            "-"
        ],
        [
            "KGFK 150853Z AUTO 20007KT 10SM CLR M09/M12 A2984 "
        ]
    ],
    [
        [
            2023,
            3,
            15,
            5,
            4
        ],
        [
            "Closed",
            "Closed",
            "Closed",
            "-",
            "-"
        ],
        [
            "KGFK 150953Z AUTO 19007KT 9SM CLR M10/M12 A2984 "
        ]
    ],
    [
        [
            2023,
            3,
            15,
            5,
            14
        ],
        [
            "Closed",
            "Closed",
            "Closed",
            "-",
            "-"
        ],
        [
            "KGFK 150953Z AUTO 19007KT 9SM CLR M10/M12 A2984 "
        ]
    ],
    [
        [
            2023,
            3,
            15,
            5,
            24
        ],
        [
            "Closed",
            "Closed",
            "Closed",
            "-",
            "-"
        ],
        [
            "KGFK 150953Z AUTO 19007KT 9SM CLR M10/M12 A2984 "
        ]
    ],
    [
        [
            2023,
            3,
            15,
            5,
            34
        ],
        [
            "Closed",
            "Closed",
            "Closed",
            "-",
            "-"
        ],
        [
            "KGFK 150953Z AUTO 19007KT 9SM CLR M10/M12 A2984 "
        ]
    ],
    [
        [
            2023,
            3,
            15,
            5,
            44
        ],
        [
            "Closed",
            "Closed",
            "Closed",
            "-",
            "-"
        ],
        [
            "KGFK 150953Z AUTO 19007KT 9SM CLR M10/M12 A2984 "
        ]
    ],
    [
        [
            2023,
            3,
            15,
            5,
            54
        ],
        [
            "Closed",
            "Closed",
            "Closed",
            "-",
            "-"
        ],
        [
            "KGFK 150953Z AUTO 19007KT 9SM CLR M10/M12 A2984 "
        ]
    ],
    [
        [
            2023,
            3,
            15,
            6,
            4
        ],
        [
            "Closed",
            "Closed",
            "Closed",
            "-",
            "-"
        ],
        [
            "KGFK 151053Z 00000KT 10SM OVC140 M09/M11 A2985 "
        ]
    ],
    [
        [
            2023,
            3,
            15,
            6,
            14
        ],
        [
            "Closed",
            "Closed",
            "Closed",
            "-",
            "-"
        ],
        [
            "KGFK 151053Z 00000KT 10SM OVC140 M09/M11 A2985 "
        ]
    ],
    [
        [
            2023,
            3,
            15,
            6,
            24
        ],
        [
            "Closed",
            "Closed",
            "Closed",
            "-",
            "-"
        ],
        [
            "KGFK 151053Z 00000KT 10SM OVC140 M09/M11 A2985 "
        ]
    ],
    [
        [
            2023,
            3,
            15,
            6,
            34
        ],
        [
            "No Dispatch - Due to Ramp Conditions",
            "Solos Per METAR/TAF/NOTAM",
            "Closed",
            "Jason Bensley",
            "Billy Mayer"
        ],
        [
            "KGFK 151053Z 00000KT 10SM OVC140 M09/M11 A2985 "
        ]
    ],
    [
        [
            2023,
            3,
            15,
            6,
            44
        ],
        [
            "No Dispatch - Due to Ramp Conditions",
            "Solos Per METAR/TAF/NOTAM",
            "Closed",
            "Jason Bensley",
            "Billy Mayer"
        ],
        [
            "KGFK 151053Z 00000KT 10SM OVC140 M09/M11 A2985 "
        ]
    ],
    [
        [
            2023,
            3,
            15,
            6,
            54
        ],
        [
            "No Dispatch - Due to Ramp Conditions",
            "Solos Per METAR/TAF/NOTAM",
            "Closed",
            "Jason Bensley",
            "Billy Mayer"
        ],
        [
            "KGFK 151053Z 00000KT 10SM OVC140 M09/M11 A2985 "
        ]
    ],
    [
        [
            2023,
            3,
            15,
            7,
            4
        ],
        [
            "No Dispatch - Due to Ramp Conditions",
            "Solos Per METAR/TAF/NOTAM",
            "Closed",
            "Jason Bensley",
            "Billy Mayer"
        ],
        [
            "KGFK 151153Z 29006KT 9SM FEW150 BKN190 M10/M12 A2985 "
        ]
    ],
    [
        [
            2023,
            3,
            15,
            7,
            14
        ],
        [
            "No Dispatch - Due to Ramp Conditions",
            "Solos Per METAR/TAF/NOTAM",
            "Closed",
            "Jason Bensley",
            "Billy Mayer"
        ],
        [
            "KGFK 151153Z 29006KT 9SM FEW150 BKN190 M10/M12 A2985 "
        ]
    ],
    [
        [
            2023,
            3,
            15,
            7,
            24
        ],
        [
            "No Dispatch - Due to Ramp Conditions",
            "Solos Per METAR/TAF/NOTAM",
            "Closed",
            "Jason Bensley",
            "Billy Mayer"
        ],
        [
            "KGFK 151153Z 29006KT 9SM FEW150 BKN190 M10/M12 A2985 "
        ]
    ],
    [
        [
            2023,
            3,
            15,
            7,
            34
        ],
        [
            "No Dispatch - Due to Ramp Conditions",
            "Solos Per METAR/TAF/NOTAM",
            "Closed",
            "Jason Bensley",
            "Billy Mayer"
        ],
        [
            "KGFK 151153Z 29006KT 9SM FEW150 BKN190 M10/M12 A2985 "
        ]
    ],
    [
        [
            2023,
            3,
            15,
            7,
            45
        ],
        [
            "No Dispatch - Due to Ramp Conditions",
            "Solos Per METAR/TAF/NOTAM",
            "Closed",
            "Jason Bensley",
            "Billy Mayer"
        ],
        [
            "KGFK 151153Z 29006KT 9SM FEW150 BKN190 M10/M12 A2985 "
        ]
    ],
    [
        [
            2023,
            3,
            15,
            7,
            55
        ],
        [
            "No Dispatch - Due to Ramp Conditions",
            "Solos Per METAR/TAF/NOTAM",
            "Closed",
            "Jason Bensley",
            "Billy Mayer"
        ],
        [
            "KGFK 151153Z 29006KT 9SM FEW150 BKN190 M10/M12 A2985 "
        ]
    ],
    [
        [
            2023,
            3,
            15,
            8,
            5
        ],
        [
            "No Dispatch - Due to Ramp Conditions",
            "Solos Per METAR/TAF/NOTAM",
            "Closed",
            "Jason Bensley",
            "Billy Mayer"
        ],
        [
            "KGFK 151253Z 17003KT 7SM BKN110 BKN180 BKN250 M08/M10 A2984 "
        ]
    ],
    [
        [
            2023,
            3,
            15,
            8,
            15
        ],
        [
            "No Dispatch - Due to Ramp Conditions",
            "Solos Per METAR/TAF/NOTAM",
            "Closed",
            "Jason Bensley",
            "Billy Mayer"
        ],
        [
            "KGFK 151253Z 17003KT 7SM BKN110 BKN180 BKN250 M08/M10 A2984 "
        ]
    ],
    [
        [
            2023,
            3,
            15,
            8,
            25
        ],
        [
            "No Dispatch - Due to Ramp Conditions",
            "Solos Per METAR/TAF/NOTAM",
            "Closed",
            "Jason Bensley",
            "Billy Mayer"
        ],
        [
            "KGFK 151253Z 17003KT 7SM BKN110 BKN180 BKN250 M08/M10 A2984 "
        ]
    ],
    [
        [
            2023,
            3,
            15,
            8,
            35
        ],
        [
            "Dual Only - Stage checks and Semi only",
            "Solos Per METAR/TAF/NOTAM",
            "Closed",
            "Jason Bensley",
            "Billy Mayer"
        ],
        [
            "KGFK 151253Z 17003KT 7SM BKN110 BKN180 BKN250 M08/M10 A2984 "
        ]
    ],
    [
        [
            2023,
            3,
            15,
            8,
            45
        ],
        [
            "Dual Only - Stage checks and Semi only",
            "Solos Per METAR/TAF/NOTAM",
            "Closed",
            "Jason Bensley",
            "Billy Mayer"
        ],
        [
            "KGFK 151253Z 17003KT 7SM BKN110 BKN180 BKN250 M08/M10 A2984 "
        ]
    ],
    [
        [
            2023,
            3,
            15,
            8,
            55
        ],
        [
            "Dual Only",
            "Solos Per METAR/TAF/NOTAM",
            "Closed",
            "Jason Bensley",
            "Billy Mayer"
        ],
        [
            "KGFK 151253Z 17003KT 7SM BKN110 BKN180 BKN250 M08/M10 A2984 "
        ]
    ],
    [
        [
            2023,
            3,
            15,
            9,
            5
        ],
        [
            "Dual Only",
            "Solos Per METAR/TAF/NOTAM",
            "Closed",
            "Jason Bensley",
            "Billy Mayer"
        ],
        [
            "KGFK 151353Z 30005KT 8SM BKN110 OVC190 M07/M09 A2984 "
        ]
    ],
    [
        [
            2023,
            3,
            15,
            9,
            15
        ],
        [
            "Dual Only",
            "Solos Per METAR/TAF/NOTAM",
            "Closed",
            "Evan Cox",
            "Billy Mayer"
        ],
        [
            "KGFK 151353Z 30005KT 8SM BKN110 OVC190 M07/M09 A2984 "
        ]
    ],
    [
        [
            2023,
            3,
            15,
            9,
            25
        ],
        [
            "Dual Only",
            "Solos Per METAR/TAF/NOTAM",
            "Closed",
            "Evan Cox",
            "Billy Mayer"
        ],
        [
            "KGFK 151353Z 30005KT 8SM BKN110 OVC190 M07/M09 A2984 "
        ]
    ],
    [
        [
            2023,
            3,
            15,
            9,
            35
        ],
        [
            "Dual Only",
            "Solos Per METAR/TAF/NOTAM",
            "Closed",
            "Evan Cox",
            "Billy Mayer"
        ],
        [
            "KGFK 151353Z 30005KT 8SM BKN110 OVC190 M07/M09 A2984 "
        ]
    ],
    [
        [
            2023,
            3,
            15,
            9,
            45
        ],
        [
            "Dual Only",
            "Solos Per METAR/TAF/NOTAM",
            "Closed",
            "Evan Cox",
            "Billy Mayer"
        ],
        [
            "KGFK 151353Z 30005KT 8SM BKN110 OVC190 M07/M09 A2984 "
        ]
    ],
    [
        [
            2023,
            3,
            15,
            9,
            55
        ],
        [
            "Dual Local Only",
            "Solos Per METAR/TAF/NOTAM",
            "Closed",
            "Evan Cox",
            "Billy Mayer"
        ],
        [
            "KGFK 151353Z 30005KT 8SM BKN110 OVC190 M07/M09 A2984 "
        ]
    ],
    [
        [
            2023,
            3,
            15,
            10,
            5
        ],
        [
            "Dual Local Only",
            "Solos Per METAR/TAF/NOTAM",
            "Closed",
            "Evan Cox",
            "Billy Mayer"
        ],
        [
            "KGFK 151353Z 30005KT 8SM BKN110 OVC190 M07/M09 A2984 "
        ]
    ],
    [
        [
            2023,
            3,
            15,
            10,
            15
        ],
        [
            "Dual Local Only",
            "Solos Per METAR/TAF/NOTAM",
            "Closed",
            "Evan Cox",
            "Billy Mayer"
        ],
        [
            "KGFK 151453Z 31006KT 9SM OVC110 M06/M09 A2986 "
        ]
    ],
    [
        [
            2023,
            3,
            15,
            10,
            25
        ],
        [
            "Dual Local Only",
            "Solos Per METAR/TAF/NOTAM",
            "Closed",
            "Evan Cox",
            "Billy Mayer"
        ],
        [
            "KGFK 151453Z 31006KT 9SM OVC110 M06/M09 A2986 "
        ]
    ],
    [
        [
            2023,
            3,
            15,
            10,
            35
        ],
        [
            "Dual Local Only",
            "Solos Per METAR/TAF/NOTAM",
            "Closed",
            "Evan Cox",
            "Billy Mayer"
        ],
        [
            "KGFK 151453Z 31006KT 9SM OVC110 M06/M09 A2986 "
        ]
    ],
    [
        [
            2023,
            3,
            15,
            10,
            45
        ],
        [
            "Dual Local Only",
            "Solos Per METAR/TAF/NOTAM",
            "Closed",
            "Evan Cox",
            "Billy Mayer"
        ],
        [
            "KGFK 151453Z 31006KT 9SM OVC110 M06/M09 A2986 "
        ]
    ],
    [
        [
            2023,
            3,
            15,
            10,
            55
        ],
        [
            "Dual Local Only",
            "Solos Per METAR/TAF/NOTAM",
            "Closed",
            "Evan Cox",
            "Billy Mayer"
        ],
        [
            "KGFK 151453Z 31006KT 9SM OVC110 M06/M09 A2986 "
        ]
    ],
    [
        [
            2023,
            3,
            15,
            11,
            5
        ],
        [
            "Dual Local Only",
            "Solos Per METAR/TAF/NOTAM",
            "Closed",
            "Evan Cox",
            "Billy Mayer"
        ],
        [
            "KGFK 151553Z 35008KT 8SM BKN095 OVC120 M05/M08 A2986 "
        ]
    ],
    [
        [
            2023,
            3,
            15,
            11,
            15
        ],
        [
            "Dual Local Only",
            "Solos Per METAR/TAF/NOTAM",
            "Closed",
            "Evan Cox",
            "Sam Beder"
        ],
        [
            "KGFK 151553Z 35008KT 8SM BKN095 OVC120 M05/M08 A2986 "
        ]
    ],
    [
        [
            2023,
            3,
            15,
            11,
            25
        ],
        [
            "Dual Local Only",
            "Solos Per METAR/TAF/NOTAM",
            "Closed",
            "Evan Cox",
            "Sam Beder"
        ],
        [
            "KGFK 151553Z 35008KT 8SM BKN095 OVC120 M05/M08 A2986 "
        ]
    ],
    [
        [
            2023,
            3,
            15,
            11,
            35
        ],
        [
            "Dual Local Only",
            "Solos Per METAR/TAF/NOTAM",
            "Closed",
            "Evan Cox",
            "Sam Beder"
        ],
        [
            "KGFK 151553Z 35008KT 8SM BKN095 OVC120 M05/M08 A2986 "
        ]
    ],
    [
        [
            2023,
            3,
            15,
            11,
            45
        ],
        [
            "Dual Local Only",
            "Solos Per METAR/TAF/NOTAM",
            "Closed",
            "Jason Bensley",
            "Sam Beder"
        ],
        [
            "KGFK 151553Z 35008KT 8SM BKN095 OVC120 M05/M08 A2986 "
        ]
    ],
    [
        [
            2023,
            3,
            15,
            11,
            55
        ],
        [
            "Dual Local Only",
            "Solos Per METAR/TAF/NOTAM",
            "Closed",
            "Jason Bensley",
            "Sam Beder"
        ],
        [
            "KGFK 151553Z 35008KT 8SM BKN095 OVC120 M05/M08 A2986 "
        ]
    ],
    [
        [
            2023,
            3,
            15,
            12,
            5
        ],
        [
            "Dual Local Only",
            "Solos Per METAR/TAF/NOTAM",
            "Closed",
            "Jason Bensley",
            "Sam Beder"
        ],
        [
            "KGFK 151653Z 02014KT 8SM SCT085 SCT095 OVC250 M03/M07 A2983 "
        ]
    ],
    [
        [
            2023,
            3,
            15,
            12,
            15
        ],
        [
            "Dual Local Only",
            "Solos Per METAR/TAF/NOTAM",
            "Closed",
            "Jason Bensley",
            "Sam Beder"
        ],
        [
            "KGFK 151653Z 02014KT 8SM SCT085 SCT095 OVC250 M03/M07 A2983 "
        ]
    ],
    [
        [
            2023,
            3,
            15,
            12,
            25
        ],
        [
            "Dual Local Only",
            "Solos Per METAR/TAF/NOTAM",
            "Closed",
            "Jason Bensley",
            "Sam Beder"
        ],
        [
            "KGFK 151653Z 02014KT 8SM SCT085 SCT095 OVC250 M03/M07 A2983 "
        ]
    ],
    [
        [
            2023,
            3,
            15,
            12,
            35
        ],
        [
            "Dual Local Only",
            "Solos Per METAR/TAF/NOTAM",
            "Closed",
            "Jason Bensley",
            "Sam Beder"
        ],
        [
            "KGFK 151653Z 02014KT 8SM SCT085 SCT095 OVC250 M03/M07 A2983 "
        ]
    ],
    [
        [
            2023,
            3,
            15,
            12,
            45
        ],
        [
            "Dual Local Only",
            "Solos Per METAR/TAF/NOTAM",
            "Closed",
            "Jason Bensley",
            "Sam Beder"
        ],
        [
            "KGFK 151653Z 02014KT 8SM SCT085 SCT095 OVC250 M03/M07 A2983 "
        ]
    ],
    [
        [
            2023,
            3,
            15,
            12,
            55
        ],
        [
            "Dual Local Only",
            "Solos Per METAR/TAF/NOTAM",
            "Closed",
            "Jason Bensley",
            "Sam Beder"
        ],
        [
            "KGFK 151653Z 02014KT 8SM SCT085 SCT095 OVC250 M03/M07 A2983 "
        ]
    ],
    [
        [
            2023,
            3,
            15,
            13,
            5
        ],
        [
            "Dual Local Only",
            "Solos Per METAR/TAF/NOTAM",
            "Closed",
            "Jason Bensley",
            "Sam Beder"
        ],
        [
            "KGFK 151753Z 04011KT 8SM SCT095 OVC250 M02/M07 A2983 "
        ]
    ],
    [
        [
            2023,
            3,
            15,
            13,
            15
        ],
        [
            "Dual Local Only",
            "Solos Per METAR/TAF/NOTAM",
            "Closed",
            "Jason Bensley",
            "Sam Beder"
        ],
        [
            "KGFK 151753Z 04011KT 8SM SCT095 OVC250 M02/M07 A2983 "
        ]
    ],
    [
        [
            2023,
            3,
            15,
            13,
            25
        ],
        [
            "Dual Local Only",
            "Solos Per METAR/TAF/NOTAM",
            "Closed",
            "Jason Bensley",
            "Sam Beder"
        ],
        [
            "KGFK 151753Z 04011KT 8SM SCT095 OVC250 M02/M07 A2983 "
        ]
    ],
    [
        [
            2023,
            3,
            15,
            13,
            35
        ],
        [
            "Dual Local Only",
            "Solos Per METAR/TAF/NOTAM",
            "Closed",
            "Jason Bensley",
            "Sam Beder"
        ],
        [
            "KGFK 151753Z 04011KT 8SM SCT095 OVC250 M02/M07 A2983 "
        ]
    ],
    [
        [
            2023,
            3,
            15,
            13,
            45
        ],
        [
            "Dual Local Only - Stage Check Only",
            "Solos Per METAR/TAF/NOTAM",
            "Closed",
            "Jason Bensley",
            "Sam Beder"
        ],
        [
            "KGFK 151753Z 04011KT 8SM SCT095 OVC250 M02/M07 A2983 "
        ]
    ],
    [
        [
            2023,
            3,
            15,
            13,
            55
        ],
        [
            "Dual Local Only - Stage Check Only",
            "Solos Per METAR/TAF/NOTAM",
            "Closed",
            "Jason Bensley",
            "Sam Beder"
        ],
        [
            "KGFK 151753Z 04011KT 8SM SCT095 OVC250 M02/M07 A2983 "
        ]
    ],
    [
        [
            2023,
            3,
            15,
            14,
            5
        ],
        [
            "Dual Local Only - Stage Check Only",
            "Solos Per METAR/TAF/NOTAM",
            "Closed",
            "Jason Bensley",
            "Sam Beder"
        ],
        [
            "KGFK 151853Z 03012KT 9SM BKN090 OVC250 M02/M07 A2982 "
        ]
    ]
]